{
  "type": "FeatureCollection",
  "features": [
    {
      "type": "Feature",
      "properties": {
        "norad_id": 43783,
        "name": "KAZSTSAT",
        "group": "resource",
        "lat": 28.308194938472557,
        "lon": -146.85655155104467,
        "alt_km": 571.1098163969145,
        "timestamp": "2025-12-20T05:41:49.675957+00:00",
        "meta_object_name": "KAZSTSAT",
        "meta_object_id": "2018-099AB",
        "meta_epoch": "2025-12-19T01:47:43.400832",
        "meta_mean_motion": 14.99363796,
        "meta_eccentricity": 0.00059468,
        "meta_inclination": 97.4535,
        "meta_ra_of_asc_node": 27.9874,
        "meta_arg_of_pericenter": 301.8992,
        "meta_mean_anomaly": 58.1653,
        "meta_ephemeris_type": 0,
        "meta_classification_type": "U",
        "meta_norad_cat_id": 43783,
        "meta_element_set_no": 999,
        "meta_rev_at_epoch": 38431,
        "meta_bstar": 3.2653117e-05,
        "meta_mean_motion_dot": 3.44e-06,
        "meta_mean_motion_ddot": 0,
        "tle_line1": "1 43783U 18099AB  25353.07480788  .00000344  00000+0  32653-4 0  9995",
        "tle_line2": "2 43783  97.4535  27.9874 0005946 301.8992  58.1653 14.99363796384317"
      },
      "geometry": {
        "type": "Point",
        "coordinates": [
          -146.85655155104467,
          28.308194938472557
        ]
      }
    },
    {
      "type": "Feature",
      "properties": {
        "norad_id": 43831,
        "name": "SAUDISAT 5A",
        "group": "resource",
        "lat": -14.08510920229853,
        "lon": -127.56794122977752,
        "alt_km": 499.40134434836455,
        "timestamp": "2025-12-20T05:41:49.675967+00:00",
        "meta_object_name": "SAUDISAT 5A",
        "meta_object_id": "2018-102A",
        "meta_epoch": "2025-12-19T22:33:13.855680",
        "meta_mean_motion": 15.25739633,
        "meta_eccentricity": 0.00114448,
        "meta_inclination": 97.3347,
        "meta_ra_of_asc_node": 53.9922,
        "meta_arg_of_pericenter": 54.0452,
        "meta_mean_anomaly": 306.1847,
        "meta_ephemeris_type": 0,
        "meta_classification_type": "U",
        "meta_norad_cat_id": 43831,
        "meta_element_set_no": 999,
        "meta_rev_at_epoch": 38832,
        "meta_bstar": 0.00017363613,
        "meta_mean_motion_dot": 4.365e-05,
        "meta_mean_motion_ddot": 0,
        "tle_line1": "1 43831U 18102A   25353.93974370  .00004365  00000+0  17364-3 0  9992",
        "tle_line2": "2 43831  97.3347  53.9922 0011444  54.0452 306.1847 15.25739633388325"
      },
      "geometry": {
        "type": "Point",
        "coordinates": [
          -127.56794122977752,
          -14.08510920229853
        ]
      }
    },
    {
      "type": "Feature",
      "properties": {
        "norad_id": 43833,
        "name": "SAUDISAT 5B",
        "group": "resource",
        "lat": -73.93649001810589,
        "lon": -149.5744170998861,
        "alt_km": 502.6789842942271,
        "timestamp": "2025-12-20T05:41:49.675977+00:00",
        "meta_object_name": "SAUDISAT 5B",
        "meta_object_id": "2018-102C",
        "meta_epoch": "2025-12-19T22:17:09.045888",
        "meta_mean_motion": 15.26088551,
        "meta_eccentricity": 0.0012175,
        "meta_inclination": 97.3442,
        "meta_ra_of_asc_node": 56.7327,
        "meta_arg_of_pericenter": 56.2785,
        "meta_mean_anomaly": 303.9613,
        "meta_ephemeris_type": 0,
        "meta_classification_type": "U",
        "meta_norad_cat_id": 43833,
        "meta_element_set_no": 999,
        "meta_rev_at_epoch": 38843,
        "meta_bstar": 0.00016586775,
        "meta_mean_motion_dot": 4.212e-05,
        "meta_mean_motion_ddot": 0,
        "tle_line1": "1 43833U 18102C   25353.92857692  .00004212  00000+0  16587-3 0  9997",
        "tle_line2": "2 43833  97.3442  56.7327 0012175  56.2785 303.9613 15.26088551388433"
      },
      "geometry": {
        "type": "Point",
        "coordinates": [
          -149.5744170998861,
          -73.93649001810589
        ]
      }
    },
    {
      "type": "Feature",
      "properties": {
        "norad_id": 44622,
        "name": "GAOFEN-10R",
        "group": "resource",
        "lat": 64.9130776725137,
        "lon": 139.3207408680697,
        "alt_km": 614.4444908457181,
        "timestamp": "2025-12-20T05:41:49.675988+00:00",
        "meta_object_name": "GAOFEN-10R",
        "meta_object_id": "2019-066A",
        "meta_epoch": "2025-12-19T22:42:29.258208",
        "meta_mean_motion": 14.82814626,
        "meta_eccentricity": 0.00073951,
        "meta_inclination": 98.0288,
        "meta_ra_of_asc_node": 301.4807,
        "meta_arg_of_pericenter": 21.1181,
        "meta_mean_anomaly": 339.0336,
        "meta_ephemeris_type": 0,
        "meta_classification_type": "U",
        "meta_norad_cat_id": 44622,
        "meta_element_set_no": 999,
        "meta_rev_at_epoch": 33581,
        "meta_bstar": 0.00014146323,
        "meta_mean_motion_dot": 1.09e-05,
        "meta_mean_motion_ddot": 0,
        "tle_line1": "1 44622U 19066A   25353.94617197  .00001090  00000+0  14146-3 0  9990",
        "tle_line2": "2 44622  98.0288 301.4807 0007395  21.1181 339.0336 14.82814626335815"
      },
      "geometry": {
        "type": "Point",
        "coordinates": [
          139.3207408680697,
          64.9130776725137
        ]
      }
    },
    {
      "type": "Feature",
      "properties": {
        "norad_id": 44804,
        "name": "CARTOSAT-3",
        "group": "resource",
        "lat": 2.5118704472244233,
        "lon": -125.94524288595719,
        "alt_km": 515.4503402208948,
        "timestamp": "2025-12-20T05:41:49.675998+00:00",
        "meta_object_name": "CARTOSAT-3",
        "meta_object_id": "2019-081A",
        "meta_epoch": "2025-12-19T22:35:49.455168",
        "meta_mean_motion": 15.19206682,
        "meta_eccentricity": 0.00140243,
        "meta_inclination": 97.4583,
        "meta_ra_of_asc_node": 53.4334,
        "meta_arg_of_pericenter": 60.7869,
        "meta_mean_anomaly": 299.4766,
        "meta_ephemeris_type": 0,
        "meta_classification_type": "U",
        "meta_norad_cat_id": 44804,
        "meta_element_set_no": 999,
        "meta_rev_at_epoch": 33625,
        "meta_bstar": 8.4729063e-05,
        "meta_mean_motion_dot": 1.719e-05,
        "meta_mean_motion_ddot": 0,
        "tle_line1": "1 44804U 19081A   25353.94154462  .00001719  00000+0  84729-4 0  9993",
        "tle_line2": "2 44804  97.4583  53.4334 0014024  60.7869 299.4766 15.19206682336259"
      },
      "geometry": {
        "type": "Point",
        "coordinates": [
          -125.94524288595719,
          2.5118704472244233
        ]
      }
    },
    {
      "type": "Feature",
      "properties": {
        "norad_id": 44819,
        "name": "GAOFEN-12 01",
        "group": "resource",
        "lat": -36.86349430675664,
        "lon": 6.230560412945093,
        "alt_km": 634.3581562616873,
        "timestamp": "2025-12-20T05:41:49.676009+00:00",
        "meta_object_name": "GAOFEN-12 01",
        "meta_object_id": "2019-082A",
        "meta_epoch": "2025-12-19T23:22:39.462240",
        "meta_mean_motion": 14.80665233,
        "meta_eccentricity": 0.00017916,
        "meta_inclination": 97.8124,
        "meta_ra_of_asc_node": 0.0652,
        "meta_arg_of_pericenter": 197.0633,
        "meta_mean_anomaly": 163.0519,
        "meta_ephemeris_type": 0,
        "meta_classification_type": "U",
        "meta_norad_cat_id": 44819,
        "meta_element_set_no": 999,
        "meta_rev_at_epoch": 32757,
        "meta_bstar": 5.1396455e-05,
        "meta_mean_motion_dot": 3.44e-06,
        "meta_mean_motion_ddot": 0,
        "tle_line1": "1 44819U 19082A   25353.97406785  .00000344  00000+0  51396-4 0  9998",
        "tle_line2": "2 44819  97.8124   0.0652 0001791 197.0633 163.0519 14.80665233327576"
      },
      "geometry": {
        "type": "Point",
        "coordinates": [
          6.230560412945093,
          -36.86349430675664
        ]
      }
    },
    {
      "type": "Feature",
      "properties": {
        "norad_id": 44873,
        "name": "CSG-1",
        "group": "resource",
        "lat": 64.74583835693393,
        "lon": 12.523048936957709,
        "alt_km": 615.3259343523832,
        "timestamp": "2025-12-20T05:41:49.676019+00:00",
        "meta_object_name": "CSG-1",
        "meta_object_id": "2019-092A",
        "meta_epoch": "2025-12-19T22:42:12.839616",
        "meta_mean_motion": 14.82149373,
        "meta_eccentricity": 0.00014859,
        "meta_inclination": 97.8803,
        "meta_ra_of_asc_node": 175.1616,
        "meta_arg_of_pericenter": 86.1094,
        "meta_mean_anomaly": 274.0289,
        "meta_ephemeris_type": 0,
        "meta_classification_type": "U",
        "meta_norad_cat_id": 44873,
        "meta_element_set_no": 999,
        "meta_rev_at_epoch": 32492,
        "meta_bstar": 5.7395212e-05,
        "meta_mean_motion_dot": 4.05e-06,
        "meta_mean_motion_ddot": 0,
        "tle_line1": "1 44873U 19092A   25353.94598194  .00000405  00000+0  57395-4 0  9995",
        "tle_line2": "2 44873  97.8803 175.1616 0001485  86.1094 274.0289 14.82149373324920"
      },
      "geometry": {
        "type": "Point",
        "coordinates": [
          12.523048936957709,
          64.74583835693393
        ]
      }
    }
  ]
}